{
    "links": {
        "self": "http://www.neowsapp.com/rest/v1/neo/3691154?api_key=iIulBulltgU6a56xZRHN4H3l9WmuAYTsLGpBGhQ2"
    },
    "id": "3691154",
    "neo_reference_id": "3691154",
    "name": "(2014 SR261)",
    "designation": "2014 SR261",
    "nasa_jpl_url": "http://ssd.jpl.nasa.gov/sbdb.cgi?sstr=3691154",
    "absolute_magnitude_h": 26.7,
    "estimated_diameter": {
        "kilometers": {
            "estimated_diameter_min": 0.0121494041,
            "estimated_diameter_max": 0.0271668934
        },
        "meters": {
            "estimated_diameter_min": 12.14940408,
            "estimated_diameter_max": 27.1668934089
        },
        "miles": {
            "estimated_diameter_min": 0.0075492874,
            "estimated_diameter_max": 0.0168807197
        },
        "feet": {
            "estimated_diameter_min": 39.8602508817,
            "estimated_diameter_max": 89.1302305717
        }
    },
    "is_potentially_hazardous_asteroid": false,
    "close_approach_data": [
        {
            "close_approach_date": "2014-09-18",
            "close_approach_date_full": "2014-Sep-18 16:08",
            "epoch_date_close_approach": 1411056480000,
            "relative_velocity": {
                "kilometers_per_second": "16.3797840368",
                "kilometers_per_hour": "58967.2225324778",
                "miles_per_hour": "36639.9389119166"
            },
            "miss_distance": {
                "astronomical": "0.0073356838",
                "lunar": "2.8535809982",
                "kilometers": "1097402.671473506",
                "miles": "681894.4001901428"
            },
            "orbiting_body": "Moon"
        },
        {
            "close_approach_date": "2014-09-18",
            "close_approach_date_full": "2014-Sep-18 17:56",
            "epoch_date_close_approach": 1411062960000,
            "relative_velocity": {
                "kilometers_per_second": "15.4441637941",
                "kilometers_per_hour": "55598.9896588752",
                "miles_per_hour": "34547.0499910939"
            },
            "miss_distance": {
                "astronomical": "0.0047575746",
                "lunar": "1.8506965194",
                "kilometers": "711723.026526102",
                "miles": "442244.1815481276"
            },
            "orbiting_body": "Earth"
        }
    ],
    "orbital_data": {
        "orbit_id": "9",
        "orbit_determination_date": "2017-04-06 08:38:23",
        "first_observation_date": "2014-09-25",
        "last_observation_date": "2014-10-03",
        "data_arc_in_days": 8,
        "observations_used": 29,
        "orbit_uncertainty": "8",
        "minimum_orbit_intersection": ".000924302",
        "jupiter_tisserand_invariant": "3.746",
        "epoch_osculation": "2456930.5",
        "eccentricity": ".5852368653616503",
        "semi_major_axis": "1.877093457802694",
        "inclination": ".3873241742019934",
        "ascending_node_longitude": "183.0084163184774",
        "orbital_period": "939.3496350166153",
        "perihelion_distance": ".7785491665673843",
        "perihelion_argument": "105.1015727354119",
        "aphelion_distance": "2.975637749038004",
        "perihelion_time": "2456874.634583728738",
        "mean_anomaly": "21.41007896095961",
        "mean_motion": ".3832438812771054",
        "equinox": "J2000",
        "orbit_class": {
            "orbit_class_type": "APO",
            "orbit_class_description": "Near-Earth asteroid orbits which cross the Earth’s orbit similar to that of 1862 Apollo",
            "orbit_class_range": "a (semi-major axis) > 1.0 AU; q (perihelion) < 1.017 AU"
        }
    },
    "is_sentry_object": false
}